NORAD_CAT_ID,OBJECT_NAME,OBJECT_TYPE,EPOCH,MEAN_MOTION,ECCENTRICITY,INCLINATION,RA_OF_ASC_NODE,ARG_OF_PERICENTER,MEAN_ANOMALY,BSTAR,MEAN_MOTION_DOT,MEAN_MOTION_DDOT,TLE_LINE0,TLE_LINE1,TLE_LINE2,SEMIMAJOR_AXIS,PERIOD,APOGEE,PERIGEE,DECAYED
54165.0,STARLINK-5279,PAYLOAD,2022-11-03 14:00:01,15.87693198,0.0019838,53.2174,111.8437,197.5234,357.6191,-0.0046793,-0.01297681,0.00047168,0 STARLINK-5279,1 54165U 22141J   22307.58334491 -.01297681  47168-3 -46793-2 0  9998,2 54165  53.2174 111.8437 0019838 197.5234 357.6191 15.87693198  1055,6686.889,90.698,322.02,295.4890000000001,0.0
54165.0,STARLINK-5279,PAYLOAD,2022-11-03 22:00:00,15.86828712,0.0016477999999999,53.2176,110.1615,206.0431,94.936,-0.0049678,-0.01163069,0.0,0 STARLINK-5279,1 54165U 22141J   22307.91667824 -.01163069  00000-0 -49678-2 0  9992,2 54165  53.2176 110.1615 0016478 206.0431  94.9360 15.86828712  1307,6689.316999999999,90.747,322.205,300.16,0.0
54165.0,STARLINK-5279,PAYLOAD,2022-11-04 06:00:00,15.85991413,0.0013611,53.2176,108.4769,214.4094,191.3519,-0.0054182,-0.01204684,0.0,0 STARLINK-5279,1 54165U 22141J   22308.25001157 -.01204684  00000-0 -54182-2 0  9996,2 54165  53.2176 108.4769 0013611 214.4094 191.3519 15.85991413  1161,6691.672,90.795,322.645,304.4290000000001,0.0
54165.0,STARLINK-5279,PAYLOAD,2022-11-04 14:00:01,15.85098633,0.0010955,53.2176,106.7977,226.1855,283.3345,-0.0054558,-0.011621,0.0,0 STARLINK-5279,1 54165U 22141J   22308.58334491 -.01162100  00000-0 -54558-2 0  9995,2 54165  53.2176 106.7977 0010955 226.1855 283.3345 15.85098633  1303,6694.184,90.846,323.383,308.716,0.0
54165.0,STARLINK-5279,PAYLOAD,2022-11-04 22:00:01,15.84231417,0.0008853,53.2173,105.1214,250.6334,1.6587,-0.0056996,-0.011825,0.0,0 STARLINK-5279,1 54165U 22141J   22308.91668981 -.01182500  00000-0 -56996-2 0  9990,2 54165  53.2173 105.1214 0008853 250.6334   1.6587 15.84231417  1267,6696.627,90.896,324.42,312.563,0.0
54165.0,STARLINK-5279,PAYLOAD,2022-11-05 12:00:00,15.82701923,0.0005772,53.2174,102.1886,267.4233,72.0385,-0.0060681,-0.01168126,0.0,0 STARLINK-5279,1 54165U 22141J   22309.50001157 -.01168126  00000-0 -60681-2 0  9996,2 54165  53.2174 102.1886 0005772 267.4233  72.0385 15.82701923  1362,6700.94,90.984,326.673,318.938,0.0
54165.0,STARLINK-5279,PAYLOAD,2022-11-05 14:00:01,15.82519815,0.0004936,53.2175,101.7711,270.3649,184.2061,-0.0064427999999999,-0.01222036,0.0,0 STARLINK-5279,1 54165U 22141J   22309.58335648 -.01222036  00000-0 -64428-2 0  9993,2 54165  53.2175 101.7711 0004936 270.3649 184.2061 15.82519815  1308,6701.454000000002,90.994,326.627,320.012,0.0
54165.0,STARLINK-5279,PAYLOAD,2022-11-05 20:00:01,15.81867779,0.0002511,53.2177,100.5186,274.221,165.065,-0.0066295,-0.01217746,0.0,0 STARLINK-5279,1 54165U 22141J   22309.83334491 -.01217746  00000-0 -66295-2 0  9992,2 54165  53.2177 100.5186 0002511 274.2210 165.0650 15.81867779  1414,6703.295999999999,91.032,326.844,323.478,0.0
54165.0,STARLINK-5279,PAYLOAD,2022-11-05 22:00:01,15.81674911,0.0002563,53.2173,100.1013,290.645,263.4896,-0.0068543,-0.01244265,0.0,0 STARLINK-5279,1 54165U 22141J   22309.91668981 -.01244265  00000-0 -68543-2 0  9999,2 54165  53.2173 100.1013 0002563 290.6450 263.4896 15.81674911  1307,6703.840999999999,91.043,327.4240000000001,323.988,0.0
54165.0,STARLINK-5279,PAYLOAD,2022-11-06 14:00:01,15.79925394,0.0001208,53.2173,96.7637,45.8629,344.2425,-0.0073283,-0.01227382,0.0,0 STARLINK-5279,1 54165U 22141J   22310.58334491 -.01227382  00000-0 -73283-2 0  9998,2 54165  53.2173  96.7637 0001208  45.8629 344.2425 15.79925394  1309,6708.7890000000025,91.144,331.464,329.843,0.0
54165.0,STARLINK-5279,PAYLOAD,2022-11-06 22:00:00,15.79019571,0.0001309,53.2171,95.1004,51.2988,75.2718,-0.007271,-0.01174654,0.0,0 STARLINK-5279,1 54165U 22141J   22310.91667824 -.01174654  00000-0 -72710-2 0  9991,2 54165  53.2171  95.1004 0001309  51.2988  75.2718 15.79019571  1586,6711.354,91.196,334.098,332.341,0.0
54165.0,STARLINK-5279,PAYLOAD,2022-11-07 14:00:01,15.77305422,0.0001204,53.2176,91.7755,50.3225,266.0085,-0.0080775,-0.01203558,0.0,0 STARLINK-5279,1 54165U 22141J   22311.58334491 -.01203558  00000-0 -80775-2 0  9992,2 54165  53.2176  91.7755 0001204  50.3225 266.0085 15.77305422  1683,6716.215999999999,91.295,338.889,337.272,0.0
54165.0,STARLINK-5279,PAYLOAD,2022-11-07 22:00:00,15.76432183,0.0001330999999999,53.2171,90.1175,39.1228,10.5305,-0.0083357,-0.01195461,0.0,0 STARLINK-5279,1 54165U 22141J   22311.91667824 -.01195461  00000-0 -83357-2 0  9990,2 54165  53.2171  90.1175 0001331  39.1228  10.5305 15.76432183  1306,6718.696,91.346,341.455,339.667,0.0
54165.0,STARLINK-5279,PAYLOAD,2022-11-08 06:00:00,15.75561126,0.0001541999999999,53.2172,88.4593,39.0633,102.8696,-0.0086274,-0.01190998,0.0,0 STARLINK-5279,1 54165U 22141J   22312.25001157 -.01190998  00000-0 -86274-2 0  9990,2 54165  53.2172  88.4593 0001542  39.0633 102.8696 15.75561126  1794,6721.172,91.396,344.0730000000001,342.001,0.0
54165.0,STARLINK-5279,PAYLOAD,2022-11-08 14:00:01,15.74701188,0.0001343,53.2174,86.8066,50.0609,183.1018,-0.0090669,-0.012034,0.0,0 STARLINK-5279,1 54165U 22141J   22312.58334491 -.01203400  00000-0 -90669-2 0  9992,2 54165  53.2174  86.8066 0001343  50.0609 183.1018 15.74701188  1308,6723.619000000002,91.446,346.38699999999994,344.581,0.0
54165.0,STARLINK-5279,PAYLOAD,2022-11-08 22:00:00,15.7372052,0.0001431999999999,53.2171,85.1557,34.0806,289.2738,-0.0047903999999999,-0.00638415,0.0,0 STARLINK-5279,1 54165U 22141J   22312.91667824 -.00638415  00000-0 -47904-2 0  9999,2 54165  53.2171  85.1557 0001432  34.0806 289.2738 15.73720520  1893,6726.4119999999975,91.503,349.24,347.31300000000016,0.0
54165.0,STARLINK-5279,PAYLOAD,2022-11-09 04:00:00,15.73220645,0.0001411,53.2175,83.9155,41.9107,258.4783,-0.00020114,-0.00028777,0.0,0 STARLINK-5279,1 54165U 22141J   22313.16667824 -.00028777  00000-0 -20114-3 0  9996,2 54165  53.2175  83.9155 0001411  41.9107 258.4783 15.73220645  1931,6727.8359999999975,91.532,350.651,348.75199999999984,0.0
54165.0,STARLINK-5279,PAYLOAD,2022-11-09 14:00:01,15.7327495,0.0002116,53.2187,81.8595,47.8375,93.6265,-0.00041693,-0.0005892,0.0,0 STARLINK-5279,1 54165U 22141J   22313.58334491 -.00058920  00000-0 -41693-3 0  9991,2 54165  53.2187  81.8595 0002116  47.8375  93.6265 15.73274950  1307,6727.681,91.529,350.97,348.12300000000016,0.0
54165.0,STARLINK-5279,PAYLOAD,2022-11-09 22:00:01,15.73233875,0.0001993,53.2183,80.2103,39.1576,191.3593,-0.00021282,-0.00030427,0.0,0 STARLINK-5279,1 54165U 22141J   22313.91668981 -.00030427  00000-0 -21282-3 0  9996,2 54165  53.2183  80.2103 0001993  39.1576 191.3593 15.73233875  1301,6727.799,91.531,351.004,348.3230000000001,0.0
54165.0,STARLINK-5279,PAYLOAD,2022-11-10 06:00:00,15.73213241,0.0001742,53.2185,78.5592,40.5008,278.9144,-0.00037864,-0.00053456,0.0,0 STARLINK-5279,1 54165U 22141J   22314.25001157 -.00053456  00000-0 -37864-3 0  9990,2 54165  53.2185  78.5592 0001742  40.5008 278.9144 15.73213241  2101,6727.857,91.532,350.894,348.55,0.0
54165.0,STARLINK-5279,PAYLOAD,2022-11-10 14:00:01,15.73139192,0.0002002,53.2188,76.9117,39.7111,8.6169,0.00020162,0.00027696,0.0,0 STARLINK-5279,1 54165U 22141J   22314.58334491  .00027696  00000-0  20162-3 0  9994,2 54165  53.2188  76.9117 0002002  39.7111   8.6169 15.73139192  1302,6728.069,91.537,351.281,348.587,0.0
54165.0,STARLINK-5279,PAYLOAD,2022-11-10 20:00:01,15.73251619,0.0001883,53.2187,75.6752,24.6153,0.4319,-0.00011487,-0.00016747,0.0,0 STARLINK-5279,1 54165U 22141J   22314.83334491 -.00016747  00000-0 -11487-3 0  9999,2 54165  53.2187  75.6752 0001883  24.6153   0.4319 15.73251619  2203,6727.748000000001,91.53,350.88,348.346,0.0
54165.0,STARLINK-5279,PAYLOAD,2022-11-10 22:00:00,15.73257002,0.0001886,53.2189,75.2623,24.9771,112.3152,-0.00024382,-0.00034784,0.0,0 STARLINK-5279,1 54165U 22141J   22314.91667824 -.00034784  00000-0 -24382-3 0  9996,2 54165  53.2189  75.2623 0001886  24.9771 112.3152 15.73257002  1300,6727.733,91.53,350.867,348.329,0.0
54165.0,STARLINK-5279,PAYLOAD,2022-11-11 14:00:01,15.73257345,0.0002043,53.2192,71.9634,28.366,286.8601,-0.00054865,-0.00077114,0.0,0 STARLINK-5279,1 54165U 22141J   22315.58334491 -.00077114  00000-0 -54865-3 0  9994,2 54165  53.2192  71.9634 0002043  28.3660 286.8601 15.73257345  1306,6727.732,91.53,350.971,348.222,0.0
54165.0,STARLINK-5279,PAYLOAD,2022-11-11 22:00:00,15.73255573,0.0002163,53.2189,70.3139,25.0518,19.1375,-0.00046555,-0.00065613,0.0,0 STARLINK-5279,1 54165U 22141J   22315.91667824 -.00065613  00000-0 -46555-3 0  9998,2 54165  53.2189  70.3139 0002163  25.0518  19.1375 15.73255573  2378,6727.736999999999,91.53,351.057,348.147,0.0
54165.0,STARLINK-5279,PAYLOAD,2022-11-12 06:00:00,15.73191428,0.0001989,53.219,68.663,32.6798,100.4829,0.00081517,0.00115327,0.0,0 STARLINK-5279,1 54165U 22141J   22316.25001157  .00115327  00000-0  81517-3 0  9990,2 54165  53.2190  68.6630 0001989  32.6798 100.4829 15.73191428  2427,6727.92,91.534,351.12300000000016,348.446,0.0
54165.0,STARLINK-5279,PAYLOAD,2022-11-12 14:00:01,15.73266495,0.0002159,53.2191,67.0155,26.0621,196.0611,-0.00045209,-0.00063777,0.0,0 STARLINK-5279,1 54165U 22141J   22316.58334491 -.00063777  00000-0 -45209-3 0  9997,2 54165  53.2191  67.0155 0002159  26.0621 196.0611 15.73266495  1308,6727.706,91.529,351.023,348.11800000000005,0.0
54165.0,STARLINK-5279,PAYLOAD,2022-11-12 22:00:00,15.732591500000002,0.0002171,53.2192,65.3657,20.741,290.3576,-0.00095144,-0.0013242,0.0,0 STARLINK-5279,1 54165U 22141J   22316.91667824 -.00132420  00000-0 -95144-3 0  9998,2 54165  53.2192  65.3657 0002171  20.7410 290.3576 15.73259150  1306,6727.727,91.53,351.052,348.131,0.0
54165.0,STARLINK-5279,PAYLOAD,2022-11-13 14:00:01,15.73127121,0.0002304,53.2194,62.0673,17.6318,111.2688,-0.00028323,-0.00040063,0.0,0 STARLINK-5279,1 54165U 22141J   22317.58334491 -.00040063  00000-0 -28323-3 0  9999,2 54165  53.2194  62.0673 0002304  17.6318 111.2688 15.73127121  1307,6728.103,91.537,351.51800000000014,348.418,0.0
